CTC2_L_00462001-01
1 71052U 23081NM  26070.40848380  .00000000  00000+0  00000-0 0  9998
2 71052  50.0000   0.0000 0000000   0.0000   0.0000 15.23597534    17
CTC2_L_00462002-01
1 71053U 24647NC  26070.40848380  .00000000  00000+0  00000-0 0  9998
2 71053  50.0000   7.2000 0000000   0.0000  28.8000 15.23597534    15
CTC2_L_00462003-01
1 71054U 26482WF  26070.40848380  .00000000  00000+0  00000-0 0  9998
2 71054  50.0000  14.4000 0000000   0.0000  57.6000 15.23597534    16
CTC2_L_00462004-01
1 71055U 26453LY  26070.40848380  .00000000  00000+0  00000-0 0  9997
2 71055  50.0000  21.6000 0000000   0.0000  86.4000 15.23597534    17
CTC2_L_00462005-01
1 71056U 22532YU  26070.40848380  .00000000  00000+0  00000-0 0  9992
2 71056  50.0000  28.8000 0000000   0.0000 115.2000 15.23597534    18
CTC2_L_00462006-01
1 71057U 23891XE  26070.40848380  .00000000  00000+0  00000-0 0  9992
2 71057  50.0000  36.0000 0000000   0.0000 144.0000 15.23597534    10
CTC2_L_00462007-01
1 71058U 25724PI  26070.40848380  .00000000  00000+0  00000-0 0  9990
2 71058  50.0000  43.2000 0000000   0.0000 172.8000 15.23597534    10
CTC2_L_00462008-01
1 71059U 23066CA  26070.40848380  .00000000  00000+0  00000-0 0  9998
2 71059  50.0000  50.4000 0000000   0.0000 201.6000 15.23597534    12
CTC2_L_00462009-01
1 71060U 23947OC  26070.40848380  .00000000  00000+0  00000-0 0  9998
2 71060  50.0000  57.6000 0000000   0.0000 230.4000 15.23597534    13
CTC2_L_00462010-01
1 71061U 24436XL  26070.40848380  .00000000  00000+0  00000-0 0  9993
2 71061  50.0000  64.8000 0000000   0.0000 259.2000 15.23597534    13
CTC2_L_00462011-01
1 71062U 22739UB  26070.40848380  .00000000  00000+0  00000-0 0  9998
2 71062  50.0000  72.0000 0000000   0.0000 288.0000 15.23597534    15
CTC2_L_00462012-01
1 71063U 24874JI  26070.40848380  .00000000  00000+0  00000-0 0  9991
2 71063  50.0000  79.2000 0000000   0.0000 316.8000 15.23597534    15
CTC2_L_00462013-01
1 71064U 23588UF  26070.40848380  .00000000  00000+0  00000-0 0  9993
2 71064  50.0000  86.4000 0000000   0.0000 345.6000 15.23597534    16
CTC2_L_00462014-01
1 71065U 24885OK  26070.40848380  .00000000  00000+0  00000-0 0  9995
2 71065  50.0000  93.6000 0000000   0.0000  14.4000 15.23597534    18
CTC2_L_00462015-01
1 71066U 26850WY  26070.40848380  .00000000  00000+0  00000-0 0  9990
2 71066  50.0000 100.8000 0000000   0.0000  43.2000 15.23597534    10
CTC2_L_00462016-01
1 71067U 25764TS  26070.40848380  .00000000  00000+0  00000-0 0  9994
2 71067  50.0000 108.0000 0000000   0.0000  72.0000 15.23597534    11
CTC2_L_00462017-01
1 71068U 26215TL  26070.40848380  .00000000  00000+0  00000-0 0  9997
2 71068  50.0000 115.2000 0000000   0.0000 100.8000 15.23597534    12
CTC2_L_00462018-01
1 71069U 22563BS  26070.40848380  .00000000  00000+0  00000-0 0  9990
2 71069  50.0000 122.4000 0000000   0.0000 129.6000 15.23597534    12
CTC2_L_00462019-01
1 71070U 23986JW  26070.40848380  .00000000  00000+0  00000-0 0  9992
2 71070  50.0000 129.6000 0000000   0.0000 158.4000 15.23597534    13
CTC2_L_00462020-01
1 71071U 23059QH  26070.40848380  .00000000  00000+0  00000-0 0  9994
2 71071  50.0000 136.8000 0000000   0.0000 187.2000 15.23597534    14
CTC2_L_00462021-01
1 71072U 23686SK  26070.40848380  .00000000  00000+0  00000-0 0  9991
2 71072  50.0000 144.0000 0000000   0.0000 216.0000 15.23597534    17
CTC2_L_00462022-01
1 71073U 25843RS  26070.40848380  .00000000  00000+0  00000-0 0  9999
2 71073  50.0000 151.2000 0000000   0.0000 244.8000 15.23597534    17
CTC2_L_00462023-01
1 71074U 25729ZY  26070.40848380  .00000000  00000+0  00000-0 0  9993
2 71074  50.0000 158.4000 0000000   0.0000 273.6000 15.23597534    17
CTC2_L_00462024-01
1 71075U 23027VJ  26070.40848380  .00000000  00000+0  00000-0 0  9993
2 71075  50.0000 165.6000 0000000   0.0000 302.4000 15.23597534    19
CTC2_L_00462025-01
1 71076U 25124ZF  26070.40848380  .00000000  00000+0  00000-0 0  9994
2 71076  50.0000 172.8000 0000000   0.0000 331.2000 15.23597534    10
CTC2_L_00462026-01
1 71077U 22354JQ  26070.40848380  .00000000  00000+0  00000-0 0  9997
2 71077  50.0000 180.0000 0000000   0.0000   0.0000 15.23597534    13
CTC2_L_00462027-01
1 71078U 26507RM  26070.40848380  .00000000  00000+0  00000-0 0  9992
2 71078  50.0000 187.2000 0000000   0.0000  28.8000 15.23597534    11
CTC2_L_00462028-01
1 71079U 24740PL  26070.40848380  .00000000  00000+0  00000-0 0  9990
2 71079  50.0000 194.4000 0000000   0.0000  57.6000 15.23597534    12
CTC2_L_00462029-01
1 71080U 23124YO  26070.40848380  .00000000  00000+0  00000-0 0  9997
2 71080  50.0000 201.6000 0000000   0.0000  86.4000 15.23597534    15
CTC2_L_00462030-01
1 71081U 22691DM  26070.40848380  .00000000  00000+0  00000-0 0  9996
2 71081  50.0000 208.8000 0000000   0.0000 115.2000 15.23597534    16
CTC2_L_00462031-01
1 71082U 23754JL  26070.40848380  .00000000  00000+0  00000-0 0  9998
2 71082  50.0000 216.0000 0000000   0.0000 144.0000 15.23597534    18
CTC2_L_00462032-01
1 71083U 23156Y   26070.40848380  .00000000  00000+0  00000-0 0  9995
2 71083  50.0000 223.2000 0000000   0.0000 172.8000 15.23597534    18
CTC2_L_00462033-01
1 71084U 24104OI  26070.40848380  .00000000  00000+0  00000-0 0  9990
2 71084  50.0000 230.4000 0000000   0.0000 201.6000 15.23597534    10
CTC2_L_00462034-01
1 71085U 24204UL  26070.40848380  .00000000  00000+0  00000-0 0  9992
2 71085  50.0000 237.6000 0000000   0.0000 230.4000 15.23597534    10
CTC2_L_00462035-01
1 71086U 22814CV  26070.40848380  .00000000  00000+0  00000-0 0  9998
2 71086  50.0000 244.8000 0000000   0.0000 259.2000 15.23597534    10
CTC2_L_00462036-01
1 71087U 26867LZ  26070.40848380  .00000000  00000+0  00000-0 0  9991
2 71087  50.0000 252.0000 0000000   0.0000 288.0000 15.23597534    12
CTC2_L_00462037-01
1 71088U 26959VB  26070.40848380  .00000000  00000+0  00000-0 0  9994
2 71088  50.0000 259.2000 0000000   0.0000 316.8000 15.23597534    12
CTC2_L_00462038-01
1 71089U 23837R   26070.40848380  .00000000  00000+0  00000-0 0  9997
2 71089  50.0000 266.4000 0000000   0.0000 345.6000 15.23597534    13
CTC2_L_00462039-01
1 71090U 22362WN  26070.40848380  .00000000  00000+0  00000-0 0  9991
2 71090  50.0000 273.6000 0000000   0.0000  14.4000 15.23597534    16
CTC2_L_00462040-01
1 71091U 23396RK  26070.40848380  .00000000  00000+0  00000-0 0  9990
2 71091  50.0000 280.8000 0000000   0.0000  43.2000 15.23597534    17
CTC2_L_00462041-01
1 71092U 24766KX  26070.40848380  .00000000  00000+0  00000-0 0  9993
2 71092  50.0000 288.0000 0000000   0.0000  72.0000 15.23597534    18
CTC2_L_00462042-01
1 71093U 25626IX  26070.40848380  .00000000  00000+0  00000-0 0  9990
2 71093  50.0000 295.2000 0000000   0.0000 100.8000 15.23597534    19
CTC2_L_00462043-01
1 71094U 24457VF  26070.40848380  .00000000  00000+0  00000-0 0  9992
2 71094  50.0000 302.4000 0000000   0.0000 129.6000 15.23597534    10
CTC2_L_00462044-01
1 71095U 26119TG  26070.40848380  .00000000  00000+0  00000-0 0  9990
2 71095  50.0000 309.6000 0000000   0.0000 158.4000 15.23597534    10
CTC2_L_00462045-01
1 71096U 24624OP  26070.40848380  .00000000  00000+0  00000-0 0  9990
2 71096  50.0000 316.8000 0000000   0.0000 187.2000 15.23597534    11
CTC2_L_00462046-01
1 71097U 26514GV  26070.40848380  .00000000  00000+0  00000-0 0  9991
2 71097  50.0000 324.0000 0000000   0.0000 216.0000 15.23597534    14
CTC2_L_00462047-01
1 71098U 25273OG  26070.40848380  .00000000  00000+0  00000-0 0  9993
2 71098  50.0000 331.2000 0000000   0.0000 244.8000 15.23597534    14
CTC2_L_00462048-01
1 71099U 22993VB  26070.40848380  .00000000  00000+0  00000-0 0  9990
2 71099  50.0000 338.4000 0000000   0.0000 273.6000 15.23597534    14
CTC2_L_00462049-01
1 71100U 23072JF  26070.40848380  .00000000  00000+0  00000-0 0  9992
2 71100  50.0000 345.6000 0000000   0.0000 302.4000 15.23597534    18
CTC2_L_00462050-01
1 71101U 26257XU  26070.40848380  .00000000  00000+0  00000-0 0  9991
2 71101  50.0000 352.8000 0000000   0.0000 331.2000 15.23597534    19
